TIANQI-37               
1 67476U 26010A   26025.28490482  .00000279  00000+0  21469-3 0  9993
2 67476  44.9835   0.4276 0010502 352.0335   8.0336 14.14271903  1343
TIANQI-38               
1 67477U 26010B   26025.28389906  .00000274  00000+0  21124-3 0  9995
2 67477  44.9799   0.4196 0011004 354.6679   5.4040 14.14422455  1344
TIANQI-39               
1 67478U 26010C   26025.21259567  .00000288  00000+0  21829-3 0  9995
2 67478  44.9845   0.7404 0010929 358.4210   1.6593 14.14524477  1337
TIANQI-40               
1 67479U 26010D   26025.28313715  .00000276  00000+0  21186-3 0  9992
2 67479  44.9851   0.4178 0011685 355.0127   5.0594 14.14536846  1343
TRANSPORTER-15DT        
1 67483U 25276DT  26025.16590995  .00002804  00000+0  24429-3 0  9996
2 67483  97.5428 100.7902 0010089 249.1248 110.8895 14.97640694  1207
STARLINK-36551          
1 67493U 26012A   26019.01773773 -.00002725  86142-5  00000+0 0  9995
2 67493  43.0100 248.3700 0007700 319.9700  13.3500 16.05267929    16
STARLINK-36396          
1 67494U 26012B   26019.01773773 -.00002725  86142-5  00000+0 0  9996
2 67494  43.0100 248.3700 0007700 319.9700  13.3500 16.05267929    17
STARLINK-36550          
1 67495U 26012C   26019.01773773 -.00002725  86142-5  00000+0 0  9997
2 67495  43.0100 248.3700 0007700 319.9700  13.3500 16.05267929    18
STARLINK-36534          
1 67496U 26012D   26019.01773773 -.00002725  86142-5  00000+0 0  9998
2 67496  43.0100 248.3700 0007700 319.9700  13.3500 16.05267929    19
STARLINK-36555          
1 67497U 26012E   26019.01773773 -.00002725  86142-5  00000+0 0  9999
2 67497  43.0100 248.3700 0007700 319.9700  13.3500 16.05267929    10
STARLINK-36081          
1 67498U 26012F   26019.01773773 -.00002725  86142-5  00000+0 0  9990
2 67498  43.0100 248.3700 0007700 319.9700  13.3500 16.05267929    11
STARLINK-36558          
1 67499U 26012G   26019.01773773 -.00002725  86142-5  00000+0 0  9991
2 67499  43.0100 248.3700 0007700 319.9700  13.3500 16.05267929    12
